YAM-7                   
1 60504U 24149AN  26068.71799904  .00009009  00000+0  30984-3 0  9997
2 60504  97.3828 149.4631 0001973 296.5121  63.5918 15.30304554 86835
STARLINK-35249          
1 65901U 25224V   26068.24124806  .00043600  00000+0  14757-2 0  9993
2 65901  53.1622  13.5661 0000733  86.4322 273.6763 15.30196702 24781
